NOAA 5                  
1 09057U 76077A   24316.19962649  .00000009  00000+0  41801-3 0  9995
2 09057 102.2301 289.4714 0009876 328.4261  42.8276 12.37808862182345
